[{"OBJECT_NAME":"OBJECT C","OBJECT_ID":"2023-003C","EPOCH":"2026-03-09T22:53:37.568256","MEAN_MOTION":15.5121963,"ECCENTRICITY":0.00046458,"INCLINATION":97.1598,"RA_OF_ASC_NODE":145.7069,"ARG_OF_PERICENTER":126.2552,"MEAN_ANOMALY":233.9131,"EPHEMERIS_TYPE":0,"CLASSIFICATION_TYPE":"U","NORAD_CAT_ID":55135,"ELEMENT_SET_NO":999,"REV_AT_EPOCH":17687,"BSTAR":0.00045849142,"MEAN_MOTION_DOT":0.00026795,"MEAN_MOTION_DDOT":0},{"OBJECT_NAME":"COSMOS 1408 DEB","OBJECT_ID":"1982-092RU","EPOCH":"2026-03-09T22:54:35.583264","MEAN_MOTION":15.46780076,"ECCENTRICITY":0.00136509,"INCLINATION":82.5652,"RA_OF_ASC_NODE":329.0493,"ARG_OF_PERICENTER":255.3488,"MEAN_ANOMALY":104.6249,"EPHEMERIS_TYPE":0,"CLASSIFICATION_TYPE":"U","NORAD_CAT_ID":50032,"ELEMENT_SET_NO":999,"REV_AT_EPOCH":23951,"BSTAR":0.00012515546,"MEAN_MOTION_DOT":6.33e-5,"MEAN_MOTION_DDOT":0}]
